#dP2021  1 14 18  0  0.00000000      96 __u+U ITR00 EXT  IAC
## 2140 410400.00000000   900.00000000 59228 0.7500000000000
+  114   C06C08C09C10C11C12C13C14C16C19C20C21C22C23C24C25C26
+        C27C28C29C30C32C33C34C35C36C37C38C39C40C43C44C45C46
+        E01E02E03E04E05E07E08E09E11E12E13E14E15E18E19E21E24
+        E25E26E27E30E31E33E36G01G02G03G04G05G06G07G08G09G10
+        G11G12G13G14G15G16G17G18G19G20G21G22G23G24G25G26G27
+        G28G29G30G31G32J01J02J03R01R02R03R04R05R07R08R09R11
+        R12R13R14R15R16R17R18R19R20R21R22R24  0  0  0  0  0
++        10 10 11  8  9 10  9  8 10  7  9  8  8  9  9  9  9
++         7  8 10  8  9  8  9  8 10  9 17 16 14 12 12 12 10
++         9  9  9  9 10  9 10  8  9  9  9  9  8  8  9  9  8
++         9  8  8  9  8  8  8  9  7  8  7  9  8  8  7  6  7
++         9  8  9  9  9  8  8  8  9 10  8  7  8  9  7  7  8
++         9  8  7  9  8 10 11 10  9 11  8  9  9 10  8 10  8
++         8  9  9  7  8  8  7  9 10 11  9  9  0  0  0  0  0
%c M  cc GPS ccc cccc cccc cccc cccc ccccc ccccc ccccc ccccc
%c cc cc ccc ccc cccc cccc cccc cccc ccccc ccccc ccccc ccccc
%f  0.0000000  0.000000000  0.00000000000  0.000000000000000
%f  0.0000000  0.000000000  0.00000000000  0.000000000000000
%i    0    0    0    0      0      0      0      0         0
%i    0    0    0    0      0      0      0      0         0
/* IAC                                ULTRA-RAPID PREDICTION
/* S/V CLOCKS ARE ALIGNED TO GNSS TIME                      
/* G:C1WC2W R:C1PC2P E:C1XC5X C:C2IC6I J:C1CC2S             
/* PCV:IGS14_2134 OL/AL:FES2004  NONE     YN ORB:CoN CLK:CoN
*  2021 01 15  7 15  0.00000000
PC06 -22509.702868  33185.815548  12668.672119      6.643748
PC08 -13952.639787  17753.102948 -35537.559592   -897.737733
PC09  -9058.222127  31987.721681  25949.233536    802.372918
PC10   2276.276019  40336.617724  13014.881068   -103.807626
PC11  24172.601385  -5892.607098 -12525.660943   -887.311313
PC12  13430.267002   9001.028586 -22699.582066    730.850670
PC13   2658.279099  23667.163910 -34655.139505     98.483335
PC14  16026.862037    996.944339  22847.564436    -93.002744
PC16 -21840.843628  33416.835864  13327.863353   -660.484399
PC19 -14223.056155  10291.008032 -21673.216272    691.489580
PC20 -15304.616515 -10414.602268 -20863.508546   -909.512237
PC21   7239.712655  25888.031251   7536.112506   -793.727168
PC22  -4916.516714  25625.162483  -9927.832774   -845.290133
PC23   5516.136353 -15328.786214 -22657.641445   -881.440453
PC24  25313.110052  11660.342315  -1016.549620   -742.201289
PC25  21584.551663  -3624.334684 -17304.968144   -897.940663
PC26  15032.766498  18400.678148  14594.565479    962.719972
PC27  -4317.185345 -15816.444831  22571.058022    466.669129
PC28  14319.453709 -20134.081070  12975.884220   -121.556245
PC29 -24022.601685  13561.955555   4199.767272    338.783421
PC30 -20186.223682  -1910.896313  19164.508366    431.429951
PC32  -7404.692406 -25839.602585  -7482.925938   -883.673767
PC33  14240.285798 -10246.555719  21701.563449   -915.706914
PC34  20615.101527   1396.861895 -18771.199281   -762.807154
PC35 -13820.300249  20615.701978 -12721.150975   -464.943369
PC36 -21877.166446   2861.586819  17111.118457   -776.792817
PC37 -13917.115862 -18842.582802 -15171.974519   -860.646998
PC38 -12417.536126  20906.235896 -34426.988261    123.992255
PC39 -18339.125817  34947.149017  14647.567428     27.428937
PC40  -3265.810230  38162.280625  17812.409583    121.404388
PC43  24202.734678 -13134.357591  -4605.002829   -552.793640
PC44   4756.966512  15858.013976 -22461.146141    -12.573081
PC45  -5405.841567  15242.231742  22740.315640    335.675461
PC46 -25557.220060 -11121.564789   1794.568881    451.466942
PE01  -7801.499739 -25130.130016 -13569.395102  -1025.109255
PE02   7873.737184  25131.859771  13486.835321    191.163070
PE03  -2825.433916  27350.629826  10967.619520   -387.505105
PE04 -11438.799786 -14856.483276 -22906.059052   -689.169511
PE05 -15633.196530  23967.332804  -7575.177328   -312.769238
PE07  19201.438970  -6636.344032  21525.035180   -487.876475
PE08  11569.769598  14464.285726  23086.566441   6061.809772
PE09 -19067.346219   6963.531225 -21549.966391   5798.572685
PE11 -29380.984781   3164.280767   1585.034574   6467.533460
PE12 -20642.089423  -9582.407970  18928.018931   5405.966702
PE13  29380.256171  -3036.187897  -1957.746770    410.290662
PE14  18813.059934   8549.510412 -24385.728200  -1295.296391
PE15  20735.675602   9396.712236 -18905.127611    834.205096
PE18 -19117.827808   3448.149545  15319.374925  -1415.670292
PE19   4590.663187 -27820.605093  -9017.983453    178.819678
PE21   8724.660082 -15032.595622 -23962.623263   -642.937250
PE24 -20948.629830  -4818.298306  20352.450706   -690.436443
PE25  -8886.299734  14869.805348  24005.510699   -524.353803
PE26  20215.879234 -13917.210110  16555.198882   2263.481960
PE27  20727.860446   4089.117539 -20721.592039     50.801645
PE30  20115.086092  21201.900454  -4625.278712   3261.649011
PE31 -20489.148445 -20697.203127   5331.522480   -477.369427
PE33    108.225700 -16296.050347  24722.887640   -464.871772
PE36 -20750.140376  13649.193774 -16088.672880    454.039352
PG01  14150.331485  13579.004288 -18309.629699    779.906322
PG02  10223.520737 -14258.879446  20603.310266   -566.147221
PG03  13182.194865  22887.806138   3198.369955    -56.704702
PG04   5268.128537  16501.332624  20122.433248   -172.833929
PG05   -219.682870 -22305.149452  14129.428464    -31.027823
PG06  22681.232947  -6367.560039  12377.671772     -4.569021
PG07  25143.486399   6999.648897   6494.273860     22.206493
PG08  -1087.482415  21163.913065 -15818.767149     -6.647920
PG09  14791.275137   5212.573701  21372.994669   -312.894317
PG10 -15800.538238    814.586700 -21270.955504    -39.515579
PG11   4327.898618  15962.011933 -21255.890158    -52.569520
PG12  -9326.290939 -24957.959680   -432.593239     12.738201
PG13  11458.489568 -22090.811687  -9245.849444     86.089169
PG14  16433.710582   1495.147548 -20821.516497     85.645597
PG15  -2560.889407 -20922.505835 -16304.385709   -176.218858
PG16  -2808.141334  21498.474293  14783.815314   -265.319033
PG17  19922.991694 -11516.070485 -12816.052222    380.434050
PG18 -25810.648695  -5275.008744   3617.460799    341.349330
PG19  19975.363690 -16155.422446  -6839.114510    -51.701899
PG20 -19727.320519 -10345.192978 -14723.859180    525.165061
PG21   6020.742879  14663.856631 -20640.472703     86.950667
PG22   9716.541689  24188.208924  -5331.942819   -697.915794
PG23 -18057.404155 -10183.202119 -16649.587119    116.108006
PG24  -9802.242166 -14931.878557 -20001.821336      3.652677
PG25 -16838.879243 -17112.316793  11409.137740     60.094476
PG26  -9985.776449  13227.517327  20659.781780     30.162036
PG27 -11571.557404  23099.613259  -5420.704323    -56.326438
PG28  14792.987792  -1776.586992 -21407.184426    629.509794
PG29 -13303.880836  -6716.946784  21950.706760   -276.080984
PG30  26224.110510   -607.867956  -4825.276980   -369.164104
PG31 -21430.345863   7600.465809  14027.204505    -93.981904
PG32 -19462.674146  12680.477663 -12633.256744     14.367013
PJ01 -21592.156885  29842.639310 -15966.213387   -336.580559
PJ02 -26033.718707  20866.065168  30673.599223      0.762218
PJ03 -34244.198173  24233.373688   -281.882213     -0.109099
PR01 -11212.611132   6719.002925 -21909.539797     73.524568
PR02  -6128.667593  23684.823892  -7072.992359    462.943160
PR03   2379.166553  23175.141387  10362.132832     29.187674
PR04   9202.490541   9586.900688  21793.363281     70.063857
PR05  10996.971521  -9362.769785  21038.285608     64.783773
PR07  -2591.305234 -22968.613969 -10810.087257    -42.168554
PR08  -9284.545580  -9624.143005 -21677.285627    -56.844282
PR09   2405.315540 -11857.353999 -22434.282639     18.676016
PR11 -21573.920568 -12998.730668   4022.087858      4.544089
PR12 -16893.118063  -1067.602421  19116.587823    196.804066
PR13  -2582.016692  11423.123129  22640.673545    -49.314514
PR14  13581.672826  17474.329641  12697.482506     59.883878
PR15  21415.213482  13149.306908  -4336.849238    105.898652
PR16  16344.778600   -187.233012 -19558.362013    -10.232554
PR17   1814.387990  10665.900866 -23086.140107    391.406105
PR18  17485.800528   1575.969486 -18506.851904     63.225884
PR19  23971.879306  -7290.520660  -4766.452227   -127.967687
PR20  16179.837321 -13384.304006  14528.301794   -431.166145
PR21  -2995.054286 -10116.078110  23230.249718   -180.497772
PR22 -18152.773458  -1002.463413  17838.567831    -92.562993
PR24 -15328.457598  13886.793121 -14913.252640     27.853792
EOF
